0 PALAPA 2
1 09862U 77018A   13282.27075957  .00000006  00000-0  10000-3 0  9211
2 09862 014.8022 355.0327 0002680 075.4757 284.5642 01.00030384 96757
0 PALAPA 2
1 09862U 77018A   13290.26788380  .00000000  00000-0  10000-3 0  9225
2 09862 014.8033 354.9508 0002767 072.9592 287.0649 01.00028459 96826
0 PALAPA 2
1 09862U 77018A   13290.26792950  .00000000  00000-0  10000-3 0  9234
2 09862 014.8034 354.9523 0001932 064.0763 295.9374 01.00028035 96822
0 PALAPA 2
1 09862U 77018A   13291.26753706  .00000034  00000-0  10000-3 0  9227
2 09862 014.8030 354.9401 0003647 081.8633 278.1660 01.00032533 96842
0 PALAPA 2
1 09862U 77018A   13293.26681638  .00000045  00000-0  10000-3 0  9236
2 09862 014.8028 354.9202 0003115 079.3958 280.6264 01.00033052 96867
0 PALAPA 2
1 09862U 77018A   13294.26645354  .00000050  00000-0  10000-3 0  9249
2 09862 014.8029 354.9100 0002647 077.6919 282.3243 01.00033304 96879
